STARLINK-1112
1 44925U 20001M   24101.13099595  .00001684  00000+0  13189-3 0  9999
2 44925  53.0541 242.5666 0001509  82.6674 277.4486 15.06402960234553
STARLINK-3230
1 50845U 22001AU  24101.34008947 -.00000082  00000+0  12913-4 0  9990
2 50845  53.2189  74.1298 0001485  96.4147 263.7014 15.08841367126074
STARLINK-6249
1 56541U 23065AQ  24100.86472083  .00002138  00000+0  17326-3 0  9997
2 56541  43.0046  60.5491 0001192 268.1440  91.9265 15.02539875 51354
STARLINK-30198
1 57290U 23096A   24101.14506512  .00000847  00000+0  77733-4 0  9994
2 57290  43.0037  59.2511 0001068 276.8837  83.1883 15.02539216 41438
STARLINK-6344
1 56520U 23065T   24101.19627431  .00002862  00000+0  22688-3 0  9991
2 56520  43.0055  45.7178 0001268 240.2932 119.7784 15.02536809 50773
STARLINK-4313
1 53064U 22077X   24101.49809892 -.00000255  00000+0 -15271-4 0  9996
2 53064  97.6543 283.3138 0002558  48.0361 312.1081 15.01259060 96745
STARLINK-4523
1 53389U 22097B   24100.94955568  .00000021  00000+0  19385-4 0  9998
2 53389  53.2196  20.8882 0001431  99.8712 260.2442 15.08836810 93180
STARLINK-4270
1 52863U 22062AK  24100.89987604  .00003120  00000+0  21415-3 0  9995
2 52863  53.2186 281.1113 0001540  90.3030 269.8139 15.08820014100438
STARLINK-30292
1 57844U 23141E   24101.52349135  .00002477  00000+0  13300-3 0  9998
2 57844  53.1105 287.9619 0001099  95.5862 264.5259 15.18715528 33429
STARLINK-5354
1 57140U 23090AR  24100.69658749  .00001441  00000+0  12169-3 0  9993
2 57140  43.0041 100.0204 0001260 272.1601  87.9097 15.02537295 44272
STARLINK-4791
1 53936U 22119BC  24101.54982727 -.00000119  00000+0  10613-4 0  9999
2 53936  53.2172 192.9305 0001389 101.7580 258.3568 15.08830793 86229
STARLINK-3337
1 50826U 22001Z   24101.17075487  .00058595  00000+0  24734-2 0  9996
2 50826  53.2162  57.3625 0002940  90.1029 270.0306 15.22740231126347
STARLINK-3593
1 51896U 22022AW  24100.72372384  .00000135  00000+0  26554-4 0  9994
2 51896  53.2150 257.1168 0001327  93.3437 266.7707 15.08832069117779
STARLINK-1277
1 45369U 20019K   24101.21171692  .00002524  00000+0  19225-3 0  9990
2 45369  53.0552  62.4999 0001475  85.2597 274.8560 15.05592222224453
STARLINK-31463
1 59296U 24056A   24101.50001157 -.00060447  00000+0 -41437-3 0  9999
2 59296  43.0011 259.6763 0001443 260.2193 142.3636 15.73836817  3855
STARLINK-3743
1 52118U 22029AG  24101.36768892  .00001086  00000+0  86280-4 0  9991
2 52118  53.2190 334.0133 0001326  85.1751 274.9393 15.08849024115369
STARLINK-1572
1 46060U 20055AK  24101.48392117  .00003242  00000+0  23634-3 0  9992
2 46060  53.0556  10.9836 0001605  85.8327 274.2845 15.06413686203269
STARLINK-6329
1 56525U 23065Y   24100.89815958  .00000141  00000+0  25521-4 0  9993
2 56525  43.0050  46.9324 0001198 268.3855  91.6850 15.02539972 50738
STARLINK-31551
1 59191U 24045P   24101.50701619  .00004639  00000+0  11818-3 0  9990
2 59191  43.0009 110.9758 0001363 249.0234 111.0477 15.40714668  5975
STARLINK-5268
1 54192U 22141AM  24101.39940218  .00005303  00000+0  35103-3 0  9990
2 54192  53.2138 248.5945 0002086  82.6418 277.4811 15.08839446 80812
STARLINK-5859
1 55915U 23037B   24101.43191289 -.00000321  00000+0 -19095-4 0  9990
2 55915  69.9986 265.0596 0002972 271.6863  88.3956 14.98328856 59232
STARLINK-3683
1 53167U 22083AM  24100.87181141 -.00000754  00000+0 -29314-4 0  9995
2 53167  53.2199  46.2252 0001559  95.0593 265.0577 15.08835825 96063
STARLINK-1739
1 46363U 20062AQ  24100.34079205  .00002270  00000+0  17128-3 0  9991
2 46363  53.0523 231.1021 0001334  87.4148 272.6993 15.06396606199532
STARLINK-5049
1 57246U 23094AE  24101.03420829  .00000469  00000+0  49780-4 0  9998
2 57246  43.0028 213.6559 0000987 279.4701  80.6030 15.02534721 42359
STARLINK-2511
1 48332U 21036BJ  24101.44198063  .00003481  00000+0  25244-3 0  9990
2 48332  53.0540 356.1712 0001417  80.0036 280.1112 15.06401189163385
STARLINK-3818
1 52340U 22045K   24101.22048899  .00000715  00000+0  63010-4 0  9993
2 52340  53.2172  94.6684 0001440  93.3328 266.7829 15.08843836110323
STARLINK-5453
1 54773U 22175R   24100.80969844  .00000682  00000+0  60949-4 0  9995
2 54773  53.2197 301.3928 0001420  91.8965 268.2190 15.08841476 74414
FALCON 9 DEB
1 48608U 21041BH  24101.25125199  .00004696  00000+0  36992-3 0  9992
2 48608  53.0317  91.1505 0010353 237.1937 122.8053 15.02478089158977
STARLINK-3109
1 49143U 21082P   24101.43365736 -.00001440  00000+0 -11292-3 0  9997
2 49143  69.9996 235.0061 0002971 272.2209  87.8610 14.98323602141870
STARLINK-3901
1 52574U 22051AQ  24100.79729266  .00001588  00000+0  11784-3 0  9993
2 52574  53.2209  16.5769 0001842 104.7702 255.3494 15.08839447106071
STARLINK-2330
1 47874U 21021Q   24101.39361868 -.00000998  00000+0 -48153-4 0  9990
2 47874  53.0540 111.3997 0001347  91.1277 268.9867 15.06389400171238
STARLINK-3866
1 52500U 22049BB  24100.95553098  .00000542  00000+0  52107-4 0  9999
2 52500  53.2158 295.8582 0001091  74.9291 285.1822 15.08837918107208
STARLINK-5543
1 56341U 23058AA  24101.46201023  .00001307  00000+0  10633-3 0  9999
2 56341  97.6542 103.2699 0001783  99.8337 260.3088 15.01267790 52880
STARLINK-30929
1 58386U 23178N   24101.14134326  .00001570  00000+0  69317-4 0  9995
2 58386  53.0934   4.8172 0001073 103.7608 256.3511 15.28024764 22921
STARLINK-4292
1 53175U 22083AV  24101.18782260 -.00002349  00000+0 -12951-3 0  9998
2 53175  53.2184  69.8116 0001519  97.7291 262.3874 15.08852897 96402
STARLINK-4451
1 53492U 22099AD  24101.23857812  .00000511  00000+0  44418-4 0  9990
2 53492  97.6545 223.0492 0004485 242.2437 117.8333 15.01265964 91430
STARLINK-3106
1 49164U 21082AL  24101.39609671  .00000607  00000+0  58644-4 0  9999
2 49164  70.0032 235.1047 0003094 273.2820  86.7985 14.98336350143047
STARLINK-30812
1 58168U 23166U   24101.58335648 -.00207872  00000+0 -76769-2 0  9990
2 58168  53.1180 220.5759 0001236  74.4452 186.7897 15.28134584 26168
STARLINK-30600
1 58100U 23161D   24101.47623935  .00012022  00000+0  44587-3 0  9991
2 58100  53.1088 167.2046 0001424  96.1781 263.9380 15.28028879 27415
STARLINK-3264
1 50198U 21125AU  24101.50752559  .00000138  00000+0  26738-4 0  9991
2 50198  53.2160 133.3778 0001428  88.8557 271.2599 15.08844374130856
STARLINK-3375
1 51114U 22005L   24101.40357959  .00000617  00000+0  56888-4 0  9993
2 51114  53.2186 183.8507 0002192  94.2209 265.9034 15.08838361124572
STARLINK-31601
1 59209U 24046J   24101.25001157  .00001006  00000+0  31913-4 0  9997
2 59209  53.1593 173.1849 0000870  86.8096 250.5829 15.42834868  5744
STARLINK-5412
1 54806U 22175BA  24101.50840075  .00000989  00000+0  80253-4 0  9994
2 54806  53.2157 282.9727 0001955  76.6026 283.5184 15.08845608 72579
STARLINK-3750
1 52311U 22041BC  24101.39253626  .00000401  00000+0  43310-4 0  9994
2 52311  53.2177 343.9022 0001499  82.9463 277.1700 15.08838915110449
STARLINK-2719
1 48677U 21044AR  24101.43367178  .00001280  00000+0  10480-3 0  9996
2 48677  53.0572   6.1968 0001719  80.1960 279.9223 15.06409718159446
STARLINK-5076
1 55401U 23014L   24101.15791585 -.00000278  00000+0 -15530-4 0  9990
2 55401  70.0013  25.6440 0002674 273.2406  86.8447 14.98324473 66488
STARLINK-5847
1 57048U 23088A   24101.26057311  .00001193  00000+0  10340-3 0  9992
2 57048  43.0057 302.9098 0001271 268.4679  91.6018 15.02537343 44409
STARLINK-5617
1 55753U 23028N   24101.53151317 -.00000074  00000+0  15665-5 0  9993
2 55753  70.0011 204.7296 0003012 269.2292  90.8521 14.98334541 61468
STARLINK-6073
1 56807U 23078AS  24100.95229141 -.00000026  00000+0  55736-5 0  9995
2 56807  69.9987 286.0465 0002661 273.1045  86.9809 14.98329737 48773
STARLINK-30188
1 57432U 23105C   24101.12428589  .00001095  00000+0  96120-4 0  9995
2 57432  43.0040  97.8506 0000801 275.9370  84.1381 15.02534192 40440
STARLINK-30088
1 57462U 23107F   24101.54806509  .00007399  00000+0  56221-3 0  9998
2 57462  43.0027 172.5668 0001348 273.7552  86.3137 15.02537166 40079
STARLINK-4430
1 53485U 22099W   24101.57925340  .00001151  00000+0  94138-4 0  9996
2 53485  97.6544 223.3816 0000966 244.6433 115.4691 15.01266400 91488
STARLINK-5611
1 55761U 23028W   24101.48122843  .00000378  00000+0  39487-4 0  9991
2 55761  70.0007 185.0752 0003019 270.1509  89.9304 14.98333552 61941
STARLINK-31557
1 59357U 24060K   24101.58335648 -.01035657  00000+0 -63024-2 0  9996
2 59357  43.0009 283.5699 0001499 261.4539  15.3654 15.78840841  2813
STARLINK-3242
1 49727U 21115D   24100.59857195  .00000815  00000+0  69271-4 0  9997
2 49727  53.2172  57.4619 0001458  91.1280 268.9879 15.08842454130972
STARLINK-2402
1 47819U 21018AJ  24101.11485160  .00006677  00000+0  46663-3 0  9998
2 47819  53.0525 147.6326 0001308  89.0066 271.1072 15.06409338170974
STARLINK-1837
1 47128U 20088G   24101.23098097  .00009948  00000+0  68527-3 0  9996
2 47128  53.0541 177.1212 0000858  85.1983 274.9103 15.06429336187144
STARLINK-3684
1 52124U 22029AN  24100.94817694  .00000435  00000+0  45447-4 0  9993
2 52124  53.2203 335.8944 0001470  94.3224 265.7936 15.08834779115303
STARLINK-3560
1 51859U 22022H   24100.88933656  .00000035  00000+0  20329-4 0  9998
2 51859  53.2210 266.1652 0001921  87.9918 272.1294 15.08834074117664
STARLINK-2741
1 48684U 21044AY  24101.39826900  .00004728  00000+0  33593-3 0  9992
2 48684  53.0553 341.7247 0001091  91.4007 268.7107 15.06416750159846
STARLINK-4688
1 53714U 22107Q   24101.22874223  .00000258  00000+0  34289-4 0  9994
2 53714  53.2188 124.4128 0001757 104.7532 255.3655 15.08835883 88874
STARLINK-2728
1 48478U 21040BC  24101.23926116  .00000462  00000+0  49931-4 0  9997
2 48478  53.0535  87.0806 0001365  84.7050 275.4095 15.06401481161822
STARLINK-4096
1 53160U 22083AE  24100.88699016  .00000915  00000+0  75555-4 0  9999
2 53160  53.2194  61.1644 0001637  95.7403 264.3776 15.08841578 95868
STARLINK-3283
1 50179U 21125Z   24101.52132569  .00000355  00000+0  40421-4 0  9991
2 50179  53.2160 143.3188 0001543  90.9253 269.1916 15.08847407130710
